ALOS (DAICHI)           
1 28931U 06002A   26048.48783721  .00001460  00000+0  25326-3 0  9992
2 28931  98.1186   4.5503 0001764  57.4401 302.6975 14.69740873 70518
H-2A R/B                
1 28932U 06002B   26048.34829913  .00009760  00000+0  49488-3 0  9998
2 28932  98.2372 193.6357 0052275 311.2531  48.4201 15.15986519 91355
RESURS-DK 1             
1 29228U 06021A   26048.69737176  .00002028  00000+0  12193-3 0  9998
2 29228  69.9327 288.7371 0003542 189.4855 170.6245 15.12622871 84508
CZ-4B R/B               
1 29507U 06046C   26048.68609722  .00004311  00000+0  22079-3 0  9990
2 29507  97.5631  93.6475 0032763 339.5836  20.4085 15.16682107 57017
CZ-2C R/B               
1 31114U 07010B   26048.29532612  .00000113  00000+0  70999-4 0  9990
2 31114  98.3971 162.5976 0058759 354.7088   5.3462 14.20238834976821
COSMO-SKYMED 1          
1 31598U 07023A   26048.80522727  .00003700  00000+0  33199-3 0  9998
2 31598  97.8859 239.6801 0001381  92.3597 267.7782 14.96371924 11930
COSMOS 2428             
1 31792U 07029A   26048.71206991  .00000219  00000+0  14321-3 0  9990
2 31792  70.9401 245.2786 0007971 299.7553  60.2775 14.12938615961275
SL-16 R/B               
1 31793U 07029B   26048.70076781 -.00000008  00000+0  20568-4 0  9990
2 31793  70.9745 214.4003 0002313 282.1641 159.1745 14.14836404962547
KORONAS-FOTON           
1 33504U 09003A   26048.66111311  .00010103  00000+0  22977-3 0  9991
2 33504  82.4310 296.6921 0009445 222.6417 137.4098 15.42784149942659
CZ-2C R/B               
1 37731U 11030B   26048.82347455  .00001476  00000+0  19208-3 0  9994
2 37731  97.8512   6.4908 0054002  55.8798  32.9193 14.81139709787153
H-2A R/B                
1 38341U 12025E   26048.71746719  .00004198  00000+0  38256-3 0  9999
2 38341  98.4699  14.1736 0045327  20.2993 340.0014 14.94985691745233
SHIJIAN-16 (SJ-16)      
1 39358U 13057A   26048.85188081  .00001547  00000+0  15403-3 0  9995
2 39358  74.9699 222.6400 0016387 162.7549 197.4200 14.92263932668542
