CCSDS_OMM_VERS = 2.0
CREATION_DATE  = 
ORIGINATOR     = 

OBJECT_NAME    = ALOS (DAICHI)
OBJECT_ID      = 2006-002A
CENTER_NAME    = EARTH
REF_FRAME      = TEME
TIME_SYSTEM    = UTC
MEAN_ELEMENT_THEORY = SGP/SGP4

EPOCH          = 2026-02-17T11:42:29.134944
MEAN_MOTION    = 14.69740873
ECCENTRICITY   = .00017642
INCLINATION    = 98.1186
RA_OF_ASC_NODE = 4.5503
ARG_OF_PERICENTER = 57.4401
MEAN_ANOMALY   = 302.6975

EPHEMERIS_TYPE = 0
CLASSIFICATION_TYPE = U
NORAD_CAT_ID   = 28931
ELEMENT_SET_NO = 999
REV_AT_EPOCH   = 7051
BSTAR          = .25326392E-3
MEAN_MOTION_DOT = .146E-4
MEAN_MOTION_DDOT = 0

CCSDS_OMM_VERS = 2.0
CREATION_DATE  = 
ORIGINATOR     = 

OBJECT_NAME    = H-2A R/B
OBJECT_ID      = 2006-002B
CENTER_NAME    = EARTH
REF_FRAME      = TEME
TIME_SYSTEM    = UTC
MEAN_ELEMENT_THEORY = SGP/SGP4

EPOCH          = 2026-02-17T08:21:33.044832
MEAN_MOTION    = 15.15986519
ECCENTRICITY   = .00522757
INCLINATION    = 98.2372
RA_OF_ASC_NODE = 193.6357
ARG_OF_PERICENTER = 311.2531
MEAN_ANOMALY   = 48.4201

EPHEMERIS_TYPE = 0
CLASSIFICATION_TYPE = U
NORAD_CAT_ID   = 28932
ELEMENT_SET_NO = 999
REV_AT_EPOCH   = 9135
BSTAR          = .49487762E-3
MEAN_MOTION_DOT = .976E-4
MEAN_MOTION_DDOT = 0

CCSDS_OMM_VERS = 2.0
CREATION_DATE  = 
ORIGINATOR     = 

OBJECT_NAME    = RESURS-DK 1
OBJECT_ID      = 2006-021A
CENTER_NAME    = EARTH
REF_FRAME      = TEME
TIME_SYSTEM    = UTC
MEAN_ELEMENT_THEORY = SGP/SGP4

EPOCH          = 2026-02-17T16:44:12.920064
MEAN_MOTION    = 15.12622871
ECCENTRICITY   = .0003542
INCLINATION    = 69.9327
RA_OF_ASC_NODE = 288.7371
ARG_OF_PERICENTER = 189.4855
MEAN_ANOMALY   = 170.6245

EPHEMERIS_TYPE = 0
CLASSIFICATION_TYPE = U
NORAD_CAT_ID   = 29228
ELEMENT_SET_NO = 999
REV_AT_EPOCH   = 8450
BSTAR          = .12193E-3
MEAN_MOTION_DOT = .2028E-4
MEAN_MOTION_DDOT = 0

CCSDS_OMM_VERS = 2.0
CREATION_DATE  = 
ORIGINATOR     = 

OBJECT_NAME    = CZ-4B R/B
OBJECT_ID      = 2006-046C
CENTER_NAME    = EARTH
REF_FRAME      = TEME
TIME_SYSTEM    = UTC
MEAN_ELEMENT_THEORY = SGP/SGP4

EPOCH          = 2026-02-17T16:27:58.799808
MEAN_MOTION    = 15.16682107
ECCENTRICITY   = .0032763
INCLINATION    = 97.5631
RA_OF_ASC_NODE = 93.6475
ARG_OF_PERICENTER = 339.5836
MEAN_ANOMALY   = 20.4085

EPHEMERIS_TYPE = 0
CLASSIFICATION_TYPE = U
NORAD_CAT_ID   = 29507
ELEMENT_SET_NO = 999
REV_AT_EPOCH   = 5701
BSTAR          = .22079E-3
MEAN_MOTION_DOT = .4311E-4
MEAN_MOTION_DDOT = 0

CCSDS_OMM_VERS = 2.0
CREATION_DATE  = 
ORIGINATOR     = 

OBJECT_NAME    = CZ-2C R/B
OBJECT_ID      = 2007-010B
CENTER_NAME    = EARTH
REF_FRAME      = TEME
TIME_SYSTEM    = UTC
MEAN_ELEMENT_THEORY = SGP/SGP4

EPOCH          = 2026-02-17T07:05:16.176768
MEAN_MOTION    = 14.20238834
ECCENTRICITY   = .0058759
INCLINATION    = 98.3971
RA_OF_ASC_NODE = 162.5976
ARG_OF_PERICENTER = 354.7088
MEAN_ANOMALY   = 5.3462

EPHEMERIS_TYPE = 0
CLASSIFICATION_TYPE = U
NORAD_CAT_ID   = 31114
ELEMENT_SET_NO = 999
REV_AT_EPOCH   = 97682
BSTAR          = .70999E-4
MEAN_MOTION_DOT = .113E-5
MEAN_MOTION_DDOT = 0

CCSDS_OMM_VERS = 2.0
CREATION_DATE  = 
ORIGINATOR     = 

OBJECT_NAME    = COSMO-SKYMED 1
OBJECT_ID      = 2007-023A
CENTER_NAME    = EARTH
REF_FRAME      = TEME
TIME_SYSTEM    = UTC
MEAN_ELEMENT_THEORY = SGP/SGP4

EPOCH          = 2026-02-17T19:19:31.636128
MEAN_MOTION    = 14.96371924
ECCENTRICITY   = .0001381
INCLINATION    = 97.8859
RA_OF_ASC_NODE = 239.6801
ARG_OF_PERICENTER = 92.3597
MEAN_ANOMALY   = 267.7782

EPHEMERIS_TYPE = 0
CLASSIFICATION_TYPE = U
NORAD_CAT_ID   = 31598
ELEMENT_SET_NO = 999
REV_AT_EPOCH   = 1193
BSTAR          = .33199E-3
MEAN_MOTION_DOT = .37E-4
MEAN_MOTION_DDOT = 0

CCSDS_OMM_VERS = 2.0
CREATION_DATE  = 
ORIGINATOR     = 

OBJECT_NAME    = COSMOS 2428
OBJECT_ID      = 2007-029A
CENTER_NAME    = EARTH
REF_FRAME      = TEME
TIME_SYSTEM    = UTC
MEAN_ELEMENT_THEORY = SGP/SGP4

EPOCH          = 2026-02-17T17:05:22.840224
MEAN_MOTION    = 14.12938615
ECCENTRICITY   = .0007971
INCLINATION    = 70.9401
RA_OF_ASC_NODE = 245.2786
ARG_OF_PERICENTER = 299.7553
MEAN_ANOMALY   = 60.2775

EPHEMERIS_TYPE = 0
CLASSIFICATION_TYPE = U
NORAD_CAT_ID   = 31792
ELEMENT_SET_NO = 999
REV_AT_EPOCH   = 96127
BSTAR          = .14321E-3
MEAN_MOTION_DOT = .219E-5
MEAN_MOTION_DDOT = 0

CCSDS_OMM_VERS = 2.0
CREATION_DATE  = 
ORIGINATOR     = 

OBJECT_NAME    = SL-16 R/B
OBJECT_ID      = 2007-029B
CENTER_NAME    = EARTH
REF_FRAME      = TEME
TIME_SYSTEM    = UTC
MEAN_ELEMENT_THEORY = SGP/SGP4

EPOCH          = 2026-02-17T16:49:06.338784
MEAN_MOTION    = 14.14836404
ECCENTRICITY   = .0002313
INCLINATION    = 70.9745
RA_OF_ASC_NODE = 214.4003
ARG_OF_PERICENTER = 282.1641
MEAN_ANOMALY   = 159.1745

EPHEMERIS_TYPE = 0
CLASSIFICATION_TYPE = U
NORAD_CAT_ID   = 31793
ELEMENT_SET_NO = 999
REV_AT_EPOCH   = 96254
BSTAR          = .20568E-4
MEAN_MOTION_DOT = -.8E-7
MEAN_MOTION_DDOT = 0

CCSDS_OMM_VERS = 2.0
CREATION_DATE  = 
ORIGINATOR     = 

OBJECT_NAME    = KORONAS-FOTON
OBJECT_ID      = 2009-003A
CENTER_NAME    = EARTH
REF_FRAME      = TEME
TIME_SYSTEM    = UTC
MEAN_ELEMENT_THEORY = SGP/SGP4

EPOCH          = 2026-02-17T15:52:00.172704
MEAN_MOTION    = 15.42784149
ECCENTRICITY   = .0009445
INCLINATION    = 82.4310
RA_OF_ASC_NODE = 296.6921
ARG_OF_PERICENTER = 222.6417
MEAN_ANOMALY   = 137.4098

EPHEMERIS_TYPE = 0
CLASSIFICATION_TYPE = U
NORAD_CAT_ID   = 33504
ELEMENT_SET_NO = 999
REV_AT_EPOCH   = 94265
BSTAR          = .22977E-3
MEAN_MOTION_DOT = .10103E-3
MEAN_MOTION_DDOT = 0

CCSDS_OMM_VERS = 2.0
CREATION_DATE  = 
ORIGINATOR     = 

OBJECT_NAME    = CZ-2C R/B
OBJECT_ID      = 2011-030B
CENTER_NAME    = EARTH
REF_FRAME      = TEME
TIME_SYSTEM    = UTC
MEAN_ELEMENT_THEORY = SGP/SGP4

EPOCH          = 2026-02-17T19:45:48.201120
MEAN_MOTION    = 14.81139709
ECCENTRICITY   = .0054002
INCLINATION    = 97.8512
RA_OF_ASC_NODE = 6.4908
ARG_OF_PERICENTER = 55.8798
MEAN_ANOMALY   = 32.9193

EPHEMERIS_TYPE = 0
CLASSIFICATION_TYPE = U
NORAD_CAT_ID   = 37731
ELEMENT_SET_NO = 999
REV_AT_EPOCH   = 78715
BSTAR          = .19208E-3
MEAN_MOTION_DOT = .1476E-4
MEAN_MOTION_DDOT = 0

CCSDS_OMM_VERS = 2.0
CREATION_DATE  = 
ORIGINATOR     = 

OBJECT_NAME    = H-2A R/B
OBJECT_ID      = 2012-025E
CENTER_NAME    = EARTH
REF_FRAME      = TEME
TIME_SYSTEM    = UTC
MEAN_ELEMENT_THEORY = SGP/SGP4

EPOCH          = 2026-02-17T17:13:09.165216
MEAN_MOTION    = 14.94985691
ECCENTRICITY   = .0045327
INCLINATION    = 98.4699
RA_OF_ASC_NODE = 14.1736
ARG_OF_PERICENTER = 20.2993
MEAN_ANOMALY   = 340.0014

EPHEMERIS_TYPE = 0
CLASSIFICATION_TYPE = U
NORAD_CAT_ID   = 38341
ELEMENT_SET_NO = 999
REV_AT_EPOCH   = 74523
BSTAR          = .38256E-3
MEAN_MOTION_DOT = .4198E-4
MEAN_MOTION_DDOT = 0

CCSDS_OMM_VERS = 2.0
CREATION_DATE  = 
ORIGINATOR     = 

OBJECT_NAME    = SHIJIAN-16 (SJ-16)
OBJECT_ID      = 2013-057A
CENTER_NAME    = EARTH
REF_FRAME      = TEME
TIME_SYSTEM    = UTC
MEAN_ELEMENT_THEORY = SGP/SGP4

EPOCH          = 2026-02-17T20:26:42.501984
MEAN_MOTION    = 14.92263932
ECCENTRICITY   = .0016387
INCLINATION    = 74.9699
RA_OF_ASC_NODE = 222.6400
ARG_OF_PERICENTER = 162.7549
MEAN_ANOMALY   = 197.4200

EPHEMERIS_TYPE = 0
CLASSIFICATION_TYPE = U
NORAD_CAT_ID   = 39358
ELEMENT_SET_NO = 999
REV_AT_EPOCH   = 66854
BSTAR          = .15403E-3
MEAN_MOTION_DOT = .1547E-4
MEAN_MOTION_DDOT = 0

